{
  "type": "FeatureCollection",
  "features": [
    {
      "type": "Feature",
      "properties": {
        "norad_id": 28054,
        "name": "DMSP 5D-3 F16 (USA 172)",
        "group": "weather",
        "lat": -3.9428726451958993,
        "lon": 11.115356551658023,
        "alt_km": 845.0310500138658,
        "timestamp": "2025-12-18T23:35:48.688572+00:00",
        "meta_object_name": "DMSP 5D-3 F16 (USA 172)",
        "meta_object_id": "2003-048A",
        "meta_epoch": "2025-12-18T13:56:41.769600",
        "meta_mean_motion": 14.14426337,
        "meta_eccentricity": 0.00063317,
        "meta_inclination": 99.0041,
        "meta_ra_of_asc_node": 10.0839,
        "meta_arg_of_pericenter": 302.3406,
        "meta_mean_anomaly": 167.0734,
        "meta_ephemeris_type": 0,
        "meta_classification_type": "U",
        "meta_norad_cat_id": 28054,
        "meta_element_set_no": 999,
        "meta_rev_at_epoch": 14395,
        "meta_bstar": 7.3458166e-05,
        "meta_mean_motion_dot": 9.5e-07,
        "meta_mean_motion_ddot": 0,
        "tle_line1": "1 28054U 03048A   25352.58103900  .00000095  00000+0  73458-4 0  9991",
        "tle_line2": "2 28054  99.0041  10.0839 0006331 302.3406 167.0734 14.14426337143951"
      },
      "geometry": {
        "type": "Point",
        "coordinates": [
          11.115356551658023,
          -3.9428726451958993
        ]
      }
    },
    {
      "type": "Feature",
      "properties": {
        "norad_id": 28912,
        "name": "METEOSAT-9 (MSG-2)",
        "group": "weather",
        "lat": 8.514376522856884,
        "lon": 127.35674346481096,
        "alt_km": 35789.77287009461,
        "timestamp": "2025-12-18T23:35:48.688626+00:00",
        "meta_object_name": "METEOSAT-9 (MSG-2)",
        "meta_object_id": "2005-049B",
        "meta_epoch": "2025-12-17T18:40:44.289696",
        "meta_mean_motion": 1.00279199,
        "meta_eccentricity": 0.00033756,
        "meta_inclination": 8.9502,
        "meta_ra_of_asc_node": 55.9296,
        "meta_arg_of_pericenter": 190.8164,
        "meta_mean_anomaly": 165.8697,
        "meta_ephemeris_type": 0,
        "meta_classification_type": "U",
        "meta_norad_cat_id": 28912,
        "meta_element_set_no": 999,
        "meta_rev_at_epoch": 517,
        "meta_bstar": 0,
        "meta_mean_motion_dot": 1.4e-06,
        "meta_mean_motion_ddot": 0,
        "tle_line1": "1 28912U 05049B   25351.77829039  .00000140  00000+0  00000+0 0  9994",
        "tle_line2": "2 28912   8.9502  55.9296 0003375 190.8164 165.8697  1.00279199  5174"
      },
      "geometry": {
        "type": "Point",
        "coordinates": [
          127.35674346481096,
          8.514376522856884
        ]
      }
    },
    {
      "type": "Feature",
      "properties": {
        "norad_id": 29522,
        "name": "DMSP 5D-3 F17 (USA 191)",
        "group": "weather",
        "lat": -51.68013637347362,
        "lon": 9.465155653712827,
        "alt_km": 850.8575184724787,
        "timestamp": "2025-12-18T23:35:48.688644+00:00",
        "meta_object_name": "DMSP 5D-3 F17 (USA 191)",
        "meta_object_id": "2006-050A",
        "meta_epoch": "2025-12-18T13:39:43.455744",
        "meta_mean_motion": 14.14922055,
        "meta_eccentricity": 0.0009625,
        "meta_inclination": 98.739,
        "meta_ra_of_asc_node": 357.837,
        "meta_arg_of_pericenter": 207.2412,
        "meta_mean_anomaly": 152.8258,
        "meta_ephemeris_type": 0,
        "meta_classification_type": "U",
        "meta_norad_cat_id": 29522,
        "meta_element_set_no": 999,
        "meta_rev_at_epoch": 98687,
        "meta_bstar": 9.2433081e-05,
        "meta_mean_motion_dot": 1.35e-06,
        "meta_mean_motion_ddot": 0,
        "tle_line1": "1 29522U 06050A   25352.56925296  .00000135  00000+0  92433-4 0  9995",
        "tle_line2": "2 29522  98.7390 357.8370 0009625 207.2412 152.8258 14.14922055986873"
      },
      "geometry": {
        "type": "Point",
        "coordinates": [
          9.465155653712827,
          -51.68013637347362
        ]
      }
    },
    {
      "type": "Feature",
      "properties": {
        "norad_id": 32958,
        "name": "FENGYUN 3A",
        "group": "weather",
        "lat": 54.475633180005275,
        "lon": 124.71945817723892,
        "alt_km": 827.1866138549722,
        "timestamp": "2025-12-18T23:35:48.688658+00:00",
        "meta_object_name": "FENGYUN 3A",
        "meta_object_id": "2008-026A",
        "meta_epoch": "2025-12-18T11:10:12.315648",
        "meta_mean_motion": 14.19516415,
        "meta_eccentricity": 0.00077072,
        "meta_inclination": 98.6703,
        "meta_ra_of_asc_node": 291.8717,
        "meta_arg_of_pericenter": 292.1921,
        "meta_mean_anomaly": 67.8437,
        "meta_ephemeris_type": 0,
        "meta_classification_type": "U",
        "meta_norad_cat_id": 32958,
        "meta_element_set_no": 999,
        "meta_rev_at_epoch": 90976,
        "meta_bstar": 5.5116894e-05,
        "meta_mean_motion_dot": 7.3e-07,
        "meta_mean_motion_ddot": 0,
        "tle_line1": "1 32958U 08026A   25352.46542032  .00000073  00000+0  55117-4 0  9998",
        "tle_line2": "2 32958  98.6703 291.8717 0007707 292.1921  67.8437 14.19516415909767"
      },
      "geometry": {
        "type": "Point",
        "coordinates": [
          124.71945817723892,
          54.475633180005275
        ]
      }
    },
    {
      "type": "Feature",
      "properties": {
        "norad_id": 35491,
        "name": "GOES 14",
        "group": "weather",
        "lat": -1.0943881716579997,
        "lon": -31.9140836496442,
        "alt_km": 35834.427072163366,
        "timestamp": "2025-12-18T23:35:48.688672+00:00",
        "meta_object_name": "GOES 14",
        "meta_object_id": "2009-033A",
        "meta_epoch": "2025-12-18T14:28:04.936224",
        "meta_mean_motion": 1.00096772,
        "meta_eccentricity": 5.189e-05,
        "meta_inclination": 1.2182,
        "meta_ra_of_asc_node": 85.3478,
        "meta_arg_of_pericenter": 177.5705,
        "meta_mean_anomaly": 288.1087,
        "meta_ephemeris_type": 0,
        "meta_classification_type": "U",
        "meta_norad_cat_id": 35491,
        "meta_element_set_no": 999,
        "meta_rev_at_epoch": 478,
        "meta_bstar": 0,
        "meta_mean_motion_dot": 1.5e-07,
        "meta_mean_motion_ddot": 0,
        "tle_line1": "1 35491U 09033A   25352.60283491  .00000015  00000+0  00000+0 0  9991",
        "tle_line2": "2 35491   1.2182  85.3478 0000518 177.5705 288.1087  1.00096772  4784"
      },
      "geometry": {
        "type": "Point",
        "coordinates": [
          -31.9140836496442,
          -1.0943881716579997
        ]
      }
    },
    {
      "type": "Feature",
      "properties": {
        "norad_id": 35951,
        "name": "DMSP 5D-3 F18 (USA 210)",
        "group": "weather",
        "lat": 8.1310687360118,
        "lon": 150.6332910561888,
        "alt_km": 849.8490447443492,
        "timestamp": "2025-12-18T23:35:48.688684+00:00",
        "meta_object_name": "DMSP 5D-3 F18 (USA 210)",
        "meta_object_id": "2009-057A",
        "meta_epoch": "2025-12-18T14:18:08.748576",
        "meta_mean_motion": 14.14773049,
        "meta_eccentricity": 0.00119314,
        "meta_inclination": 98.8839,
        "meta_ra_of_asc_node": 328.9675,
        "meta_arg_of_pericenter": 47.3731,
        "meta_mean_anomaly": 312.8446,
        "meta_ephemeris_type": 0,
        "meta_classification_type": "U",
        "meta_norad_cat_id": 35951,
        "meta_element_set_no": 999,
        "meta_rev_at_epoch": 83405,
        "meta_bstar": 0.00014110676,
        "meta_mean_motion_dot": 2.28e-06,
        "meta_mean_motion_ddot": 0,
        "tle_line1": "1 35951U 09057A   25352.59593459  .00000228  00000+0  14111-3 0  9992",
        "tle_line2": "2 35951  98.8839 328.9675 0011931  47.3731 312.8446 14.14773049834058"
      },
      "geometry": {
        "type": "Point",
        "coordinates": [
          150.6332910561888,
          8.1310687360118
        ]
      }
    },
    {
      "type": "Feature",
      "properties": {
        "norad_id": 36411,
        "name": "EWS-G2 (GOES 15)",
        "group": "weather",
        "lat": 0.7071267555278961,
        "lon": 143.09386689585247,
        "alt_km": 35797.8480117315,
        "timestamp": "2025-12-18T23:35:48.688698+00:00",
        "meta_object_name": "EWS-G2 (GOES 15)",
        "meta_object_id": "2010-008A",
        "meta_epoch": "2025-12-18T15:07:24.566880",
        "meta_mean_motion": 1.00270715,
        "meta_eccentricity": 0.0005473,
        "meta_inclination": 0.8275,
        "meta_ra_of_asc_node": 86.0859,
        "meta_arg_of_pericenter": 176.959,
        "meta_mean_anomaly": 112.669,
        "meta_ephemeris_type": 0,
        "meta_classification_type": "U",
        "meta_norad_cat_id": 36411,
        "meta_element_set_no": 999,
        "meta_rev_at_epoch": 5782,
        "meta_bstar": 0,
        "meta_mean_motion_dot": 6.3e-07,
        "meta_mean_motion_ddot": 0,
        "tle_line1": "1 36411U 10008A   25352.63014545  .00000063  00000+0  00000+0 0  9996",
        "tle_line2": "2 36411   0.8275  86.0859 0005473 176.9590 112.6690  1.00270715 57821"
      },
      "geometry": {
        "type": "Point",
        "coordinates": [
          143.09386689585247,
          0.7071267555278961
        ]
      }
    }
  ]
}